ORBCOMM FM05            
1 25117U 97084F   24200.35957284  .00003920  00000+0  11995-2 0  9995
2 25117  45.0132 167.7162 0004248 336.9013  23.1646 14.43083383392335
ORBCOMM FM06            
1 25118U 97084G   24200.62492065  .00004974  00000+0  15076-2 0  9991
2 25118  45.0125 166.5761 0003394 342.6435 187.4081 14.43174435393284
ORBCOMM FM07            
1 25119U 97084H   24200.58785749  .00004262  00000+0  13007-2 0  9993
2 25119  45.0121 167.3355 0004993 332.4481  27.6105 14.43071998393274
ORBCOMM FM03            
1 25158U 98007B   24200.59219031  .00003216  00000+0  12197-2 0  9996
2 25158 107.9693 171.1787 0045471 111.5318 249.0676 14.32447320376236
ORBCOMM FM04            
1 25159U 98007C   24200.56787892  .00003324  00000+0  12546-2 0  9997
2 25159 107.9680 174.1143 0041099 109.2693 251.2898 14.32721193376407
ORBCOMM FM17            
1 25413U 98046A   24200.56739126  .00002552  00000+0  96740-3 0  9991
2 25413  44.9954  30.2544 0001434 341.5899  18.4895 14.33387444355279
ORBCOMM FM18            
1 25414U 98046B   24200.63542667  .00003233  00000+0  11451-2 0  9994
2 25414  44.9947 315.5374 0002067  33.0563 327.0413 14.36237795356256
ORBCOMM FM19            
1 25415U 98046C   24200.61257791  .00003306  00000+0  11737-2 0  9992
2 25415  44.9957 317.1504 0001105   0.6448  15.1428 14.36071200356219
